CCSDS_OMM_VERS = 2.0
CREATION_DATE  = 
ORIGINATOR     = 

OBJECT_NAME    = STARLINK-37054
OBJECT_ID      = 2026-042P
CENTER_NAME    = EARTH
REF_FRAME      = TEME
TIME_SYSTEM    = UTC
MEAN_ELEMENT_THEORY = SGP/SGP4

EPOCH          = 2026-03-27T10:49:38.862336
MEAN_MOTION    = 15.80917816
ECCENTRICITY   = .0001857
INCLINATION    = 53.1572
RA_OF_ASC_NODE = 105.6499
ARG_OF_PERICENTER = 110.0482
MEAN_ANOMALY   = 250.0740

EPHEMERIS_TYPE = 0
CLASSIFICATION_TYPE = U
NORAD_CAT_ID   = 68082
ELEMENT_SET_NO = 999
REV_AT_EPOCH   = 489
BSTAR          = .10446E-2
MEAN_MOTION_DOT = .211021E-2
MEAN_MOTION_DDOT = 0

CCSDS_OMM_VERS = 2.0
CREATION_DATE  = 
ORIGINATOR     = 

OBJECT_NAME    = STARLINK-37065
OBJECT_ID      = 2026-042Q
CENTER_NAME    = EARTH
REF_FRAME      = TEME
TIME_SYSTEM    = UTC
MEAN_ELEMENT_THEORY = SGP/SGP4

EPOCH          = 2026-03-27T11:31:26.577408
MEAN_MOTION    = 15.75546988
ECCENTRICITY   = .0001294
INCLINATION    = 53.1585
RA_OF_ASC_NODE = 105.8417
ARG_OF_PERICENTER = 183.6169
MEAN_ANOMALY   = 176.4842

EPHEMERIS_TYPE = 0
CLASSIFICATION_TYPE = U
NORAD_CAT_ID   = 68083
ELEMENT_SET_NO = 999
REV_AT_EPOCH   = 489
BSTAR          = .22573E-2
MEAN_MOTION_DOT = .365638E-2
MEAN_MOTION_DDOT = 0

CCSDS_OMM_VERS = 2.0
CREATION_DATE  = 
ORIGINATOR     = 

OBJECT_NAME    = STARLINK-37037
OBJECT_ID      = 2026-042R
CENTER_NAME    = EARTH
REF_FRAME      = TEME
TIME_SYSTEM    = UTC
MEAN_ELEMENT_THEORY = SGP/SGP4

EPOCH          = 2026-03-27T22:00:00.999936
MEAN_MOTION    = 15.75237094
ECCENTRICITY   = .00012512
INCLINATION    = 53.1591
RA_OF_ASC_NODE = 103.4608
ARG_OF_PERICENTER = 100.0993
MEAN_ANOMALY   = 319.8222

EPHEMERIS_TYPE = 0
CLASSIFICATION_TYPE = U
NORAD_CAT_ID   = 68084
ELEMENT_SET_NO = 999
REV_AT_EPOCH   = 498
BSTAR          = .17518751E-4
MEAN_MOTION_DOT = .2046E-4
MEAN_MOTION_DDOT = 0

CCSDS_OMM_VERS = 2.0
CREATION_DATE  = 
ORIGINATOR     = 

OBJECT_NAME    = STARLINK-37068
OBJECT_ID      = 2026-042S
CENTER_NAME    = EARTH
REF_FRAME      = TEME
TIME_SYSTEM    = UTC
MEAN_ELEMENT_THEORY = SGP/SGP4

EPOCH          = 2026-03-27T22:00:00.999936
MEAN_MOTION    = 15.75982017
ECCENTRICITY   = .00009467
INCLINATION    = 53.1589
RA_OF_ASC_NODE = 103.3065
ARG_OF_PERICENTER = 87.3689
MEAN_ANOMALY   = 47.5365

EPHEMERIS_TYPE = 0
CLASSIFICATION_TYPE = U
NORAD_CAT_ID   = 68085
ELEMENT_SET_NO = 999
REV_AT_EPOCH   = 498
BSTAR          = -.70767297E-2
MEAN_MOTION_DOT = -.1013751E-1
MEAN_MOTION_DDOT = 0

CCSDS_OMM_VERS = 2.0
CREATION_DATE  = 
ORIGINATOR     = 

OBJECT_NAME    = STARLINK-37067
OBJECT_ID      = 2026-042T
CENTER_NAME    = EARTH
REF_FRAME      = TEME
TIME_SYSTEM    = UTC
MEAN_ELEMENT_THEORY = SGP/SGP4

EPOCH          = 2026-03-27T18:20:31.066080
MEAN_MOTION    = 15.80968990
ECCENTRICITY   = .00017619
INCLINATION    = 53.1575
RA_OF_ASC_NODE = 104.0449
ARG_OF_PERICENTER = 76.9842
MEAN_ANOMALY   = 283.1377

EPHEMERIS_TYPE = 0
CLASSIFICATION_TYPE = U
NORAD_CAT_ID   = 68086
ELEMENT_SET_NO = 999
REV_AT_EPOCH   = 494
BSTAR          = .17823942E-2
MEAN_MOTION_DOT = .368124E-2
MEAN_MOTION_DDOT = 0

CCSDS_OMM_VERS = 2.0
CREATION_DATE  = 
ORIGINATOR     = 

OBJECT_NAME    = STARLINK-37062
OBJECT_ID      = 2026-042U
CENTER_NAME    = EARTH
REF_FRAME      = TEME
TIME_SYSTEM    = UTC
MEAN_ELEMENT_THEORY = SGP/SGP4

EPOCH          = 2026-03-27T18:19:26.048352
MEAN_MOTION    = 15.80975264
ECCENTRICITY   = .00018886
INCLINATION    = 53.1576
RA_OF_ASC_NODE = 104.0397
ARG_OF_PERICENTER = 71.4956
MEAN_ANOMALY   = 288.6272

EPHEMERIS_TYPE = 0
CLASSIFICATION_TYPE = U
NORAD_CAT_ID   = 68087
ELEMENT_SET_NO = 999
REV_AT_EPOCH   = 494
BSTAR          = .19312248E-2
MEAN_MOTION_DOT = .400558E-2
MEAN_MOTION_DDOT = 0

CCSDS_OMM_VERS = 2.0
CREATION_DATE  = 
ORIGINATOR     = 

OBJECT_NAME    = STARLINK-37059
OBJECT_ID      = 2026-042V
CENTER_NAME    = EARTH
REF_FRAME      = TEME
TIME_SYSTEM    = UTC
MEAN_ELEMENT_THEORY = SGP/SGP4

EPOCH          = 2026-03-27T18:18:27.609984
MEAN_MOTION    = 15.80561360
ECCENTRICITY   = .00050624
INCLINATION    = 53.1571
RA_OF_ASC_NODE = 104.0353
ARG_OF_PERICENTER = 47.7998
MEAN_ANOMALY   = 312.3453

EPHEMERIS_TYPE = 0
CLASSIFICATION_TYPE = U
NORAD_CAT_ID   = 68088
ELEMENT_SET_NO = 999
REV_AT_EPOCH   = 494
BSTAR          = .72174218E-3
MEAN_MOTION_DOT = .142149E-2
MEAN_MOTION_DDOT = 0

CCSDS_OMM_VERS = 2.0
CREATION_DATE  = 
ORIGINATOR     = 

OBJECT_NAME    = STARLINK-37004
OBJECT_ID      = 2026-042W
CENTER_NAME    = EARTH
REF_FRAME      = TEME
TIME_SYSTEM    = UTC
MEAN_ELEMENT_THEORY = SGP/SGP4

EPOCH          = 2026-03-27T20:00:01.999872
MEAN_MOTION    = 15.75210120
ECCENTRICITY   = .00009675
INCLINATION    = 53.1591
RA_OF_ASC_NODE = 103.7154
ARG_OF_PERICENTER = 93.1729
MEAN_ANOMALY   = 291.2398

EPHEMERIS_TYPE = 0
CLASSIFICATION_TYPE = U
NORAD_CAT_ID   = 68089
ELEMENT_SET_NO = 999
REV_AT_EPOCH   = 496
BSTAR          = .43334247E-3
MEAN_MOTION_DOT = .66223E-3
MEAN_MOTION_DDOT = 0

CCSDS_OMM_VERS = 2.0
CREATION_DATE  = 
ORIGINATOR     = 

OBJECT_NAME    = STARLINK-36320
OBJECT_ID      = 2026-042X
CENTER_NAME    = EARTH
REF_FRAME      = TEME
TIME_SYSTEM    = UTC
MEAN_ELEMENT_THEORY = SGP/SGP4

EPOCH          = 2026-03-27T03:41:33.349344
MEAN_MOTION    = 15.75432358
ECCENTRICITY   = .00027632
INCLINATION    = 53.1593
RA_OF_ASC_NODE = 107.3571
ARG_OF_PERICENTER = 139.4736
MEAN_ANOMALY   = 220.6491

EPHEMERIS_TYPE = 0
CLASSIFICATION_TYPE = U
NORAD_CAT_ID   = 68090
ELEMENT_SET_NO = 999
REV_AT_EPOCH   = 484
BSTAR          = .2325439E-2
MEAN_MOTION_DOT = .375248E-2
MEAN_MOTION_DDOT = 0

CCSDS_OMM_VERS = 2.0
CREATION_DATE  = 
ORIGINATOR     = 

OBJECT_NAME    = STARLINK-36324
OBJECT_ID      = 2026-042Y
CENTER_NAME    = EARTH
REF_FRAME      = TEME
TIME_SYSTEM    = UTC
MEAN_ELEMENT_THEORY = SGP/SGP4

EPOCH          = 2026-03-27T16:00:01.999584
MEAN_MOTION    = 15.75281960
ECCENTRICITY   = .00010156
INCLINATION    = 53.1590
RA_OF_ASC_NODE = 104.8665
ARG_OF_PERICENTER = 79.2879
MEAN_ANOMALY   = 283.0326

EPHEMERIS_TYPE = 0
CLASSIFICATION_TYPE = U
NORAD_CAT_ID   = 68091
ELEMENT_SET_NO = 999
REV_AT_EPOCH   = 493
BSTAR          = -.52598243E-3
MEAN_MOTION_DOT = -.80651E-3
MEAN_MOTION_DDOT = 0

CCSDS_OMM_VERS = 2.0
CREATION_DATE  = 
ORIGINATOR     = 

OBJECT_NAME    = STARLINK-36896
OBJECT_ID      = 2026-042Z
CENTER_NAME    = EARTH
REF_FRAME      = TEME
TIME_SYSTEM    = UTC
MEAN_ELEMENT_THEORY = SGP/SGP4

EPOCH          = 2026-03-27T11:11:50.155008
MEAN_MOTION    = 15.75276808
ECCENTRICITY   = .0001471
INCLINATION    = 53.1600
RA_OF_ASC_NODE = 105.7516
ARG_OF_PERICENTER = 99.5875
MEAN_ANOMALY   = 260.5312

EPHEMERIS_TYPE = 0
CLASSIFICATION_TYPE = U
NORAD_CAT_ID   = 68092
ELEMENT_SET_NO = 999
REV_AT_EPOCH   = 488
BSTAR          = .13015E-2
MEAN_MOTION_DOT = .204089E-2
MEAN_MOTION_DDOT = 0

CCSDS_OMM_VERS = 2.0
CREATION_DATE  = 
ORIGINATOR     = 

OBJECT_NAME    = STARLINK-36251
OBJECT_ID      = 2026-042AA
CENTER_NAME    = EARTH
REF_FRAME      = TEME
TIME_SYSTEM    = UTC
MEAN_ELEMENT_THEORY = SGP/SGP4

EPOCH          = 2026-03-27T18:11:53.053152
MEAN_MOTION    = 15.80988044
ECCENTRICITY   = .00033137
INCLINATION    = 53.1578
RA_OF_ASC_NODE = 104.0040
ARG_OF_PERICENTER = 80.0074
MEAN_ANOMALY   = 280.1322

EPHEMERIS_TYPE = 0
CLASSIFICATION_TYPE = U
NORAD_CAT_ID   = 68093
ELEMENT_SET_NO = 999
REV_AT_EPOCH   = 493
BSTAR          = .20763061E-2
MEAN_MOTION_DOT = .432595E-2
MEAN_MOTION_DDOT = 0

