STARLINK-37054          
1 68082U 26042P   26086.45114424  .00211021  00000+0  10446-2 0  9998
2 68082  53.1572 105.6499 0001857 110.0482 250.0740 15.80917816  4895
STARLINK-37065          
1 68083U 26042Q   26086.48016872  .00365638  00000+0  22573-2 0  9998
2 68083  53.1585 105.8417 0001294 183.6169 176.4842 15.75546988  4891
STARLINK-37037          
1 68084U 26042R   26086.91667824  .00002046  00000+0  17519-4 0  9993
2 68084  53.1591 103.4608 0001251 100.0993 319.8222 15.75237094  4986
STARLINK-37068          
1 68085U 26042S   26086.91667824 -.01013751  00000+0 -70767-2 0  9994
2 68085  53.1589 103.3065 0000946  87.3689  47.5365 15.75982017  4984
STARLINK-37067          
1 68086U 26042T   26086.76424845  .00368124  00000+0  17824-2 0  9991
2 68086  53.1575 104.0449 0001761  76.9842 283.1377 15.80968990  4942
STARLINK-37062          
1 68087U 26042U   26086.76349593  .00400558  00000+0  19312-2 0  9990
2 68087  53.1576 104.0397 0001888  71.4956 288.6272 15.80975264  4948
STARLINK-37059          
1 68088U 26042V   26086.76281956  .00142149  00000+0  72174-3 0  9994
2 68088  53.1571 104.0353 0005062  47.7998 312.3453 15.80561360  4940
STARLINK-37004          
1 68089U 26042W   26086.83335648  .00066223  00000+0  43334-3 0  9995
2 68089  53.1591 103.7154 0000967  93.1729 291.2398 15.75210120  4968
STARLINK-36320          
1 68090U 26042X   26086.15385821  .00375248  00000+0  23254-2 0  9998
2 68090  53.1593 107.3571 0002763 139.4736 220.6491 15.75432358  4849
STARLINK-36324          
1 68091U 26042Y   26086.66668981 -.00080651  00000+0 -52598-3 0  9993
2 68091  53.1590 104.8665 0001015  79.2879 283.0326 15.75281960  4932
STARLINK-36896          
1 68092U 26042Z   26086.46655272  .00204089  00000+0  13015-2 0  9992
2 68092  53.1600 105.7516 0001471  99.5875 260.5312 15.75276808  4881
STARLINK-36251          
1 68093U 26042AA  26086.75825293  .00432595  00000+0  20763-2 0  9990
2 68093  53.1578 104.0040 0003313  80.0074 280.1322 15.80988044  4936
